OBJECT_NAME,OBJECT_ID,EPOCH,MEAN_MOTION,ECCENTRICITY,INCLINATION,RA_OF_ASC_NODE,ARG_OF_PERICENTER,MEAN_ANOMALY,EPHEMERIS_TYPE,CLASSIFICATION_TYPE,NORAD_CAT_ID,ELEMENT_SET_NO,REV_AT_EPOCH,BSTAR,MEAN_MOTION_DOT,MEAN_MOTION_DDOT
TIANMU-1 20,2023-208B,2026-06-08T07:33:50.310432,15.32631157,.00068316,97.4433,276.1976,7.7670,352.3677,0,U,58661,999,13606,.231008E-3,.7204E-4,0
TIANMU-1 21,2023-208C,2026-06-08T07:36:11.104416,15.34919038,.0006687,97.4492,278.8417,359.9063,0.2178,0,U,58662,999,13620,.2516962E-3,.8448E-4,0
TIANMU-1 22,2023-208D,2026-06-08T07:33:03.738240,15.30933610,.00040512,97.4487,275.5144,33.6853,326.4645,0,U,58663,999,13597,.22477852E-3,.6642E-4,0
TIANMU-1 15,2024-004A,2026-06-08T07:37:12.405216,15.26931675,.00075794,97.4675,345.5069,32.1643,328.0056,0,U,58700,999,13442,.20707075E-3,.5405E-4,0
TIANMU-1 16,2024-004B,2026-06-08T07:19:24.362112,15.26657018,.00066871,97.4621,344.7415,36.8111,323.3586,0,U,58701,999,13442,.20156948E-3,.5215E-4,0
TIANMU-1 17,2024-004C,2026-06-08T06:58:27.184224,15.26656441,.0006367,97.4650,345.2086,42.3689,317.8040,0,U,58702,999,13441,.19614989E-3,.5072E-4,0
TIANMU-1 18,2024-004D,2026-06-08T06:26:36.989952,15.26915011,.00048657,97.4667,345.4364,42.2698,317.8915,0,U,58703,999,13441,.20386414E-3,.5315E-4,0
INSAT-3DS,2024-033A,2026-06-08T01:47:43.406880,1.00273229,.00012893,0.0143,154.3210,278.9209,292.2390,0,U,58990,999,4697,0,-.141E-5,0
METEOR-M2 4,2024-039A,2026-06-08T07:41:16.812672,14.22428683,.00067679,98.7013,118.7300,186.3862,173.7230,0,U,59051,999,11800,.30071566E-4,.23E-6,0
GOES 19,2024-119A,2026-06-08T06:10:49.143072,1.00270040,.0000463,0.0154,89.3842,66.9489,117.8291,0,U,60133,999,687,0,0,0
MTG-S1,2025-143A,2026-06-08T06:31:17.180832,1.00271630,.00010481,0.6113,336.9159,29.7601,344.3330,0,U,64723,999,333,0,-.17E-6,0
METOP-SGA1,2025-172A,2026-06-08T03:05:58.436448,14.21508416,.00009398,98.6646,219.0220,87.4987,272.6298,0,U,65159,999,4250,.43679896E-4,.52E-6,0
FENGYUN 3H,2025-219A,2026-06-08T07:16:40.044864,14.19918962,.00016374,98.6766,100.2453,83.7746,276.3617,0,U,65815,999,3612,.52030411E-4,.67E-6,0
