TIANMU-1 20             
1 58661U 23208B   26159.31516563  .00007204  00000+0  23101-3 0  9996
2 58661  97.4433 276.1976 0006831   7.7670 352.3677 15.32631157136064
TIANMU-1 21             
1 58662U 23208C   26159.31679519  .00008448  00000+0  25170-3 0  9997
2 58662  97.4492 278.8417 0006687 359.9063   0.2178 15.34919038136206
TIANMU-1 22             
1 58663U 23208D   26159.31462660  .00006642  00000+0  22478-3 0  9997
2 58663  97.4487 275.5144 0004051  33.6853 326.4645 15.30933610135971
TIANMU-1 15             
1 58700U 24004A   26159.31750469  .00005405  00000+0  20707-3 0  9990
2 58700  97.4675 345.5069 0007579  32.1643 328.0056 15.26931675134422
TIANMU-1 16             
1 58701U 24004B   26159.30514308  .00005215  00000+0  20157-3 0  9998
2 58701  97.4621 344.7415 0006687  36.8111 323.3586 15.26657018134422
TIANMU-1 17             
1 58702U 24004C   26159.29059241  .00005072  00000+0  19615-3 0  9995
2 58702  97.4650 345.2086 0006367  42.3689 317.8040 15.26656441134413
TIANMU-1 18             
1 58703U 24004D   26159.26848368  .00005315  00000+0  20386-3 0  9996
2 58703  97.4667 345.4364 0004865  42.2698 317.8915 15.26915011134415
INSAT-3DS               
1 58990U 24033A   26159.07480795 -.00000141  00000+0  00000+0 0  9991
2 58990   0.0143 154.3210 0001289 278.9209 292.2390  1.00273229 46973
METEOR-M2 4             
1 59051U 24039A   26159.32033348  .00000023  00000+0  30072-4 0  9997
2 59051  98.7013 118.7300 0006767 186.3862 173.7230 14.22428683118003
GOES 19                 
1 60133U 24119A   26159.25751323  .00000000  00000+0  00000+0 0  9999
2 60133   0.0154  89.3842 0000463  66.9489 117.8291  1.00270040  6878
MTG-S1                  
1 64723U 25143A   26159.27172663 -.00000017  00000+0  00000+0 0  9991
2 64723   0.6113 336.9159 0001048  29.7601 344.3330  1.00271630  3338
METOP-SGA1              
1 65159U 25172A   26159.12914857  .00000052  00000+0  43680-4 0  9994
2 65159  98.6646 219.0220 0000939  87.4987 272.6298 14.21508416 42506
FENGYUN 3H              
1 65815U 25219A   26159.30324126  .00000067  00000+0  52030-4 0  9994
2 65815  98.6766 100.2453 0001637  83.7746 276.3617 14.19918962 36120
